{
    "links": {
        "self": "http://www.neowsapp.com/rest/v1/neo/3788051?api_key=iIulBulltgU6a56xZRHN4H3l9WmuAYTsLGpBGhQ2"
    },
    "id": "3788051",
    "neo_reference_id": "3788051",
    "name": "(2017 UC6)",
    "designation": "2017 UC6",
    "nasa_jpl_url": "http://ssd.jpl.nasa.gov/sbdb.cgi?sstr=3788051",
    "absolute_magnitude_h": 24.6,
    "estimated_diameter": {
        "kilometers": {
            "estimated_diameter_min": 0.0319561887,
            "estimated_diameter_max": 0.0714562102
        },
        "meters": {
            "estimated_diameter_min": 31.9561886721,
            "estimated_diameter_max": 71.4562101727
        },
        "miles": {
            "estimated_diameter_min": 0.0198566489,
            "estimated_diameter_max": 0.0444008168
        },
        "feet": {
            "estimated_diameter_min": 104.8431420431,
            "estimated_diameter_max": 234.436392583
        }
    },
    "is_potentially_hazardous_asteroid": false,
    "close_approach_data": [
        {
            "close_approach_date": "2017-10-25",
            "close_approach_date_full": "2017-Oct-25 03:50",
            "epoch_date_close_approach": 1508903400000,
            "relative_velocity": {
                "kilometers_per_second": "16.4377496173",
                "kilometers_per_hour": "59175.8986222217",
                "miles_per_hour": "36769.6021189021"
            },
            "miss_distance": {
                "astronomical": "0.1129463891",
                "lunar": "43.9361453599",
                "kilometers": "16896539.233551217",
                "miles": "10499022.6335801146"
            },
            "orbiting_body": "Earth"
        }
    ],
    "orbital_data": {
        "orbit_id": "1",
        "orbit_determination_date": "2017-10-26 18:31:12",
        "first_observation_date": "2017-10-24",
        "last_observation_date": "2017-10-26",
        "data_arc_in_days": 2,
        "observations_used": 22,
        "orbit_uncertainty": "9",
        "minimum_orbit_intersection": ".11201",
        "jupiter_tisserand_invariant": "4.335",
        "epoch_osculation": "2458051.5",
        "eccentricity": ".2698247295591839",
        "semi_major_axis": "1.511662425132337",
        "inclination": "30.64134445009466",
        "ascending_node_longitude": "31.04142861751048",
        "orbital_period": "678.8606787595037",
        "perihelion_distance": "1.103778520086224",
        "perihelion_argument": "9.023550937380557",
        "aphelion_distance": "1.91954633017845",
        "perihelion_time": "2458061.112094142151",
        "mean_anomaly": "354.9027038986887",
        "mean_motion": ".530300268175549",
        "equinox": "J2000",
        "orbit_class": {
            "orbit_class_type": "AMO",
            "orbit_class_description": "Near-Earth asteroid orbits similar to that of 1221 Amor",
            "orbit_class_range": "1.017 AU < q (perihelion) < 1.3 AU"
        }
    },
    "is_sentry_object": false
}